NORAD_CAT_ID,OBJECT_NAME,OBJECT_TYPE,EPOCH,MEAN_MOTION,ECCENTRICITY,INCLINATION,RA_OF_ASC_NODE,ARG_OF_PERICENTER,MEAN_ANOMALY,BSTAR,MEAN_MOTION_DOT,MEAN_MOTION_DDOT,TLE_LINE0,TLE_LINE1,TLE_LINE2,SEMIMAJOR_AXIS,PERIOD,APOGEE,PERIGEE,DECAYED
51868.0,STARLINK-3578,PAYLOAD,2023-02-11 04:45:47,15.08845743,0.0001179,53.2165,8.1772,86.9955,273.1172,0.00015669,2.207e-05,0.0,0 STARLINK-3578,1 51868U 22022S   23042.19846617  .00002207  00000-0  15669-3 0  9990,2 51868  53.2165   8.1772 0001179  86.9955 273.1172 15.08845743 53654,6917.863,95.437,540.543,538.912,0.0
51868.0,STARLINK-3578,PAYLOAD,2023-02-11 20:39:39,15.0884132,9.87e-05,53.2169,5.2073,105.6055,254.5046,0.00012555,1.711e-05,0.0,0 STARLINK-3578,1 51868U 22022S   23042.86087149  .00001711  00000-0  12555-3 0  9991,2 51868  53.2169   5.2073 0000987 105.6055 254.5046 15.08841320 53757,6917.876,95.437,540.424,539.059,0.0
51868.0,STARLINK-3578,PAYLOAD,2023-02-12 06:11:57,15.08859786,0.0001344,53.2173,3.4212,124.9486,235.1632,0.00031746,4.771e-05,0.0,0 STARLINK-3578,1 51868U 22022S   23043.25830297  .00004771  00000-0  31746-3 0  9997,2 51868  53.2173   3.4212 0001344 124.9486 235.1632 15.08859786 53815,6917.82,95.436,540.615,538.755,0.0
51868.0,STARLINK-3578,PAYLOAD,2023-02-12 14:08:53,15.08843533,8.64e-05,53.217,1.9351,109.6168,250.4917,6.0896e-05,6.82e-06,0.0,0 STARLINK-3578,1 51868U 22022S   23043.58950794  .00000682  00000-0  60896-4 0  9994,2 51868  53.2170   1.9351 0000864 109.6168 250.4917 15.08843533 53866,6917.87,95.437,540.332,539.137,0.0
51868.0,STARLINK-3578,PAYLOAD,2023-02-12 20:30:27,15.08815211,0.0001049,53.2173,0.7452,120.235,239.8746,-0.00042734,-7.078e-05,0.0,0 STARLINK-3578,1 51868U 22022S   23043.85448014 -.00007078  00000-0 -42734-3 0  9999,2 51868  53.2173   0.7452 0001049 120.2350 239.8746 15.08815211 53904,6917.956,95.439,540.547,539.095,0.0
51868.0,STARLINK-3578,PAYLOAD,2023-02-13 04:27:21,15.08838982,0.0001229,53.2169,359.2573,131.1326,228.9773,-2.8333e-05,-7.39e-06,0.0,0 STARLINK-3578,1 51868U 22022S   23044.18567125 -.00000739  00000-0 -28333-4 0  9998,2 51868  53.2169 359.2573 0001229 131.1326 228.9773 15.08838982 53953,6917.884,95.438,540.599,538.898,0.0
51868.0,STARLINK-3578,PAYLOAD,2023-02-13 13:59:41,15.08833011,0.0001123,53.2172,357.4735,106.9713,253.1402,3.5428e-05,2.76e-06,0.0,0 STARLINK-3578,1 51868U 22022S   23044.58311838  .00000276  00000-0  35428-4 0  9997,2 51868  53.2172 357.4735 0001123 106.9713 253.1402 15.08833011 54015,6917.902,95.438,540.544,538.99,0.0
51868.0,STARLINK-3578,PAYLOAD,2023-02-14 05:53:32,15.08848835,0.0001419,53.2169,354.5004,106.1612,253.9536,0.00041937,6.394e-05,0.0,0 STARLINK-3578,1 51868U 22022S   23045.24551831  .00006394  00000-0  41937-3 0  9998,2 51868  53.2169 354.5004 0001419 106.1612 253.9536 15.08848835 54113,6917.853,95.437,540.7,538.737,0.0
51868.0,STARLINK-3578,PAYLOAD,2023-02-14 13:50:29,15.08833668,0.000156,53.2168,353.0146,94.5235,265.5936,0.00024449,3.605e-05,0.0,0 STARLINK-3578,1 51868U 22022S   23045.57672676  .00003605  00000-0  24449-3 0  9996,2 51868  53.2168 353.0146 0001560  94.5235 265.5936 15.08833668 54167,6917.9,95.438,540.844,538.686,0.0
51868.0,STARLINK-3578,PAYLOAD,2023-02-15 02:33:33,15.08846946,0.000113,53.2168,350.6349,108.2127,251.8988,0.0004067,6.192e-05,0.0,0 STARLINK-3578,1 51868U 22022S   23046.10664265  .00006192  00000-0  40670-3 0  9999,2 51868  53.2168 350.6349 0001130 108.2127 251.8988 15.08846946 54248,6917.859,95.437,540.506,538.942,0.0
51868.0,STARLINK-3578,PAYLOAD,2023-02-15 13:41:15,15.0884465,8.85e-05,53.2161,348.5532,91.8086,268.3007,0.00028844,4.306e-05,0.0,0 STARLINK-3578,1 51868U 22022S   23046.57032282  .00004306  00000-0  28844-3 0  9992,2 51868  53.2161 348.5532 0000885  91.8086 268.3007 15.08844650 54311,6917.866,95.437,540.343,539.119,0.0
51868.0,STARLINK-3578,PAYLOAD,2023-02-16 05:35:05,15.08881288,0.0001087,53.2171,345.5792,87.9169,272.1948,0.00078331,0.00012214,0.0,0 STARLINK-3578,1 51868U 22022S   23047.23270555  .00012214  00000-0  78331-3 0  9996,2 51868  53.2171 345.5792 0001087  87.9169 272.1948 15.08881288 54416,6917.754,95.435,540.371,538.867,0.0
51868.0,STARLINK-3578,PAYLOAD,2023-02-16 23:04:21,15.08839141,0.0001082,53.2172,342.3085,102.0511,258.0602,-6.4462e-05,-1.314e-05,0.0,0 STARLINK-3578,1 51868U 22022S   23047.96135938 -.00001314  00000-0 -64462-4 0  9993,2 51868  53.2172 342.3085 0001082 102.0511 258.0602 15.08839141 54525,6917.883,95.438,540.497,538.999,0.0
51868.0,STARLINK-3578,PAYLOAD,2023-02-17 05:25:53,15.08853178,0.0001143,53.2172,341.1196,104.0205,256.0915,0.00038729,5.883e-05,0.0,0 STARLINK-3578,1 51868U 22022S   23048.22631502  .00005883  00000-0  38729-3 0  9990,2 51868  53.2172 341.1196 0001143 104.0205 256.0915 15.08853178 54560,6917.84,95.437,540.496,538.914,0.0
51868.0,STARLINK-3578,PAYLOAD,2023-02-17 07:01:16,15.08856675,9.88e-05,53.217,340.8215,103.2569,256.8533,0.00091413,0.00014297,0.0,0 STARLINK-3578,1 51868U 22022S   23048.29255455  .00014297  00000-0  91413-3 0  9994,2 51868  53.2170 340.8215 0000988 103.2569 256.8533 15.08856675 54576,6917.829,95.436,540.378,539.011,0.0
51868.0,STARLINK-3578,PAYLOAD,2023-02-17 21:19:46,15.0881094,0.0001387,53.217,338.1454,113.7355,246.3783,0.00076887,0.0001196,0.0,0 STARLINK-3578,1 51868U 22022S   23048.88873655  .00011960  00000-0  76887-3 0  9999,2 51868  53.2170 338.1454 0001387 113.7355 246.3783 15.08810940 54660,6917.969,95.439,540.794,538.875,0.0
51868.0,STARLINK-3578,PAYLOAD,2023-02-18 00:30:33,15.08813095,0.0001266,53.2178,337.5516,96.5496,263.564,0.0021817,0.00034579,0.0,0 STARLINK-3578,1 51868U 22022S   23049.02122076  .00034579  00000-0  21817-2 0  9993,2 51868  53.2178 337.5516 0001266  96.5496 263.5640 15.08813095 54689,6917.963,95.439,540.703,538.952,0.0
51868.0,STARLINK-3578,PAYLOAD,2023-02-18 11:38:15,15.08834877,0.0001032,53.2174,335.4713,74.4587,285.6519,0.001959,0.00031023,0.0,0 STARLINK-3578,1 51868U 22022S   23049.48490697  .00031023  00000-0  19590-2 0  9996,2 51868  53.2174 335.4713 0001032  74.4587 285.6519 15.08834877 54757,6917.896,95.438,540.475,539.047,0.0
51868.0,STARLINK-3578,PAYLOAD,2023-02-19 11:29:01,15.08869453,0.0001097,53.2172,331.0094,79.4414,280.6702,0.00049753,7.645e-05,0.0,0 STARLINK-3578,1 51868U 22022S   23050.47849219  .00007645  00000-0  49753-3 0  9993,2 51868  53.2172 331.0094 0001097  79.4414 280.6702 15.08869453 54908,6917.79,95.436,540.414,538.896,0.0
51868.0,STARLINK-3578,PAYLOAD,2023-02-19 22:36:43,15.08861621,0.0002055,53.2172,328.9269,80.114,280.0084,0.00083535,0.00013039,0.0,0 STARLINK-3578,1 51868U 22022S   23050.94217137  .00013039  00000-0  83535-3 0  9993,2 51868  53.2172 328.9269 0002055  80.1140 280.0084 15.08861621 54970,6917.814,95.436,541.101,538.258,0.0
51868.0,STARLINK-3578,PAYLOAD,2023-02-20 11:19:48,15.0886227,0.0001294,53.2157,326.5481,67.579,292.5339,0.00048844,7.499e-05,0.0,0 STARLINK-3578,1 51868U 22022S   23051.47208357  .00007499  00000-0  48844-3 0  9993,2 51868  53.2157 326.5481 0001294  67.5790 292.5339 15.08862270 55059,6917.812,95.436,540.572,538.782,0.0
51868.0,STARLINK-3578,PAYLOAD,2023-02-20 22:27:30,15.08846501,0.0001089,53.2174,324.4689,78.3166,281.7948,0.00015537,2.186e-05,0.0,0 STARLINK-3578,1 51868U 22022S   23051.93576455  .00002186  00000-0  15537-3 0  9992,2 51868  53.2174 324.4689 0001089  78.3166 281.7948 15.08846501 55127,6917.861,95.437,540.479,538.972,0.0
51868.0,STARLINK-3578,PAYLOAD,2023-02-21 11:10:35,15.08852765,0.0001363,53.2173,322.0902,78.3975,281.717,0.00099261,0.0001555,0.0,0 STARLINK-3578,1 51868U 22022S   23052.46568407  .00015550  00000-0  99261-3 0  9994,2 51868  53.2173 322.0902 0001363  78.3975 281.7170 15.08852765 55206,6917.841,95.437,540.649,538.763,0.0
51868.0,STARLINK-3578,PAYLOAD,2023-02-21 17:32:07,15.08854559,0.0001489,53.2169,320.9019,77.9822,282.1337,0.00073438,0.00011424,0.0,0 STARLINK-3578,1 51868U 22022S   23052.73064276  .00011424  00000-0  73438-3 0  9993,2 51868  53.2169 320.9019 0001489  77.9822 282.1337 15.08854559 55249,6917.836,95.437,540.731,538.671,0.0
51868.0,STARLINK-3578,PAYLOAD,2023-02-22 03:04:25,15.08873583,0.0001375,53.2158,319.1154,86.4316,273.6833,0.0011159,0.00017532,0.0,0 STARLINK-3578,1 51868U 22022S   23053.12807462  .00017532  00000-0  11159-2 0  9996,2 51868  53.2158 319.1154 0001375  86.4316 273.6833 15.08873583 55305,6917.778,95.435,540.594,538.692,0.0
51868.0,STARLINK-3578,PAYLOAD,2023-02-22 17:22:54,15.08824659,0.0001448,53.217,316.4415,80.3793,279.7362,-0.00035005,-5.852e-05,0.0,0 STARLINK-3578,1 51868U 22022S   23053.72424750 -.00005852  00000-0 -35005-3 0  9998,2 51868  53.2170 316.4415 0001448  80.3793 279.7362 15.08824659 55395,6917.927,95.439,540.794,538.791,0.0
51868.0,STARLINK-3578,PAYLOAD,2023-02-22 22:09:04,15.08817348,0.0001041,53.217,315.5495,59.63,300.4794,-0.00021593,-3.72e-05,0.0,0 STARLINK-3578,1 51868U 22022S   23053.92297190 -.00003720  00000-0 -21593-3 0  9995,2 51868  53.2170 315.5495 0001041  59.6300 300.4794 15.08817348 55427,6917.95,95.439,540.535,539.094,0.0
51868.0,STARLINK-3578,PAYLOAD,2023-02-22 23:44:28,15.08817758,9.35e-05,53.217,315.2518,54.1547,305.9532,-9.6678e-05,-1.825e-05,0.0,0 STARLINK-3578,1 51868U 22022S   23053.98921303 -.00001825  00000-0 -96678-4 0  9992,2 51868  53.2170 315.2518 0000935  54.1547 305.9532 15.08817758 55430,6917.948,95.439,540.46,539.167,0.0
51868.0,STARLINK-3578,PAYLOAD,2023-02-23 20:24:28,15.08859286,9.03e-05,53.2149,311.3829,42.0249,318.0813,0.0013909,0.00021929,0.0,0 STARLINK-3578,1 51868U 22022S   23054.85033238  .00021929  00000-0  13909-2 0  9999,2 51868  53.2149 311.3829 0000903  42.0249 318.0813 15.08859286 55561,6917.821,95.436,540.311,539.062,0.0
51868.0,STARLINK-3578,PAYLOAD,2023-02-23 23:35:14,15.08875421,9.36e-05,53.2161,310.7889,54.8742,305.2338,0.0017967,0.0002845,0.0,0 STARLINK-3578,1 51868U 22022S   23054.98280878  .00028450  00000-0  17967-2 0  9991,2 51868  53.2161 310.7889 0000936  54.8742 305.2338 15.08875421 55580,6917.772,95.435,540.285,538.99,0.0
